<?xml version="1.0" encoding="UTF-8"?>
<ndm xmlns:xsi="http://www.w3.org/2001/XMLSchema-instance" xsi:noNamespaceSchemaLocation="https://sanaregistry.org/r/ndmxml_unqualified/ndmxml-2.0.0-master-2.0.xsd">
<omm id="CCSDS_OMM_VERS" version="2.0">
<header><CREATION_DATE/><ORIGINATOR/></header><body><segment><metadata><OBJECT_NAME>ORBCOMM FM20</OBJECT_NAME><OBJECT_ID>1998-046D</OBJECT_ID><CENTER_NAME>EARTH</CENTER_NAME><REF_FRAME>TEME</REF_FRAME><TIME_SYSTEM>UTC</TIME_SYSTEM><MEAN_ELEMENT_THEORY>SGP4</MEAN_ELEMENT_THEORY></metadata><data><meanElements><EPOCH>2024-11-25T16:11:14.140608</EPOCH><MEAN_MOTION>14.36338389</MEAN_MOTION><ECCENTRICITY>.0002018</ECCENTRICITY><INCLINATION>44.9945</INCLINATION><RA_OF_ASC_NODE>64.4734</RA_OF_ASC_NODE><ARG_OF_PERICENTER>247.8402</ARG_OF_PERICENTER><MEAN_ANOMALY>112.2232</MEAN_ANOMALY></meanElements><tleParameters><EPHEMERIS_TYPE>0</EPHEMERIS_TYPE><CLASSIFICATION_TYPE>U</CLASSIFICATION_TYPE><NORAD_CAT_ID>25416</NORAD_CAT_ID><ELEMENT_SET_NO>999</ELEMENT_SET_NO><REV_AT_EPOCH>37499</REV_AT_EPOCH><BSTAR>.11357E-2</BSTAR><MEAN_MOTION_DOT>.3212E-4</MEAN_MOTION_DOT><MEAN_MOTION_DDOT>0</MEAN_MOTION_DDOT></tleParameters></data></segment></body></omm>
<omm id="CCSDS_OMM_VERS" version="2.0">
<header><CREATION_DATE/><ORIGINATOR/></header><body><segment><metadata><OBJECT_NAME>ORBCOMM FM16</OBJECT_NAME><OBJECT_ID>1998-046E</OBJECT_ID><CENTER_NAME>EARTH</CENTER_NAME><REF_FRAME>TEME</REF_FRAME><TIME_SYSTEM>UTC</TIME_SYSTEM><MEAN_ELEMENT_THEORY>SGP4</MEAN_ELEMENT_THEORY></metadata><data><meanElements><EPOCH>2024-11-25T16:22:16.024224</EPOCH><MEAN_MOTION>14.37705212</MEAN_MOTION><ECCENTRICITY>.0003907</ECCENTRICITY><INCLINATION>44.9941</INCLINATION><RA_OF_ASC_NODE>58.4450</RA_OF_ASC_NODE><ARG_OF_PERICENTER>318.5991</ARG_OF_PERICENTER><MEAN_ANOMALY>41.4561</MEAN_ANOMALY></meanElements><tleParameters><EPHEMERIS_TYPE>0</EPHEMERIS_TYPE><CLASSIFICATION_TYPE>U</CLASSIFICATION_TYPE><NORAD_CAT_ID>25417</NORAD_CAT_ID><ELEMENT_SET_NO>999</ELEMENT_SET_NO><REV_AT_EPOCH>37495</REV_AT_EPOCH><BSTAR>.12759E-2</BSTAR><MEAN_MOTION_DOT>.3732E-4</MEAN_MOTION_DOT><MEAN_MOTION_DDOT>0</MEAN_MOTION_DDOT></tleParameters></data></segment></body></omm>
<omm id="CCSDS_OMM_VERS" version="2.0">
<header><CREATION_DATE/><ORIGINATOR/></header><body><segment><metadata><OBJECT_NAME>ORBCOMM FM15</OBJECT_NAME><OBJECT_ID>1998-046F</OBJECT_ID><CENTER_NAME>EARTH</CENTER_NAME><REF_FRAME>TEME</REF_FRAME><TIME_SYSTEM>UTC</TIME_SYSTEM><MEAN_ELEMENT_THEORY>SGP4</MEAN_ELEMENT_THEORY></metadata><data><meanElements><EPOCH>2024-11-25T16:19:40.364256</EPOCH><MEAN_MOTION>14.37385215</MEAN_MOTION><ECCENTRICITY>.0003423</ECCENTRICITY><INCLINATION>44.9972</INCLINATION><RA_OF_ASC_NODE>63.0226</RA_OF_ASC_NODE><ARG_OF_PERICENTER>317.3317</ARG_OF_PERICENTER><MEAN_ANOMALY>42.7265</MEAN_ANOMALY></meanElements><tleParameters><EPHEMERIS_TYPE>0</EPHEMERIS_TYPE><CLASSIFICATION_TYPE>U</CLASSIFICATION_TYPE><NORAD_CAT_ID>25418</NORAD_CAT_ID><ELEMENT_SET_NO>999</ELEMENT_SET_NO><REV_AT_EPOCH>37495</REV_AT_EPOCH><BSTAR>.13246E-2</BSTAR><MEAN_MOTION_DOT>.3854E-4</MEAN_MOTION_DOT><MEAN_MOTION_DDOT>0</MEAN_MOTION_DDOT></tleParameters></data></segment></body></omm>
<omm id="CCSDS_OMM_VERS" version="2.0">
<header><CREATION_DATE/><ORIGINATOR/></header><body><segment><metadata><OBJECT_NAME>ORBCOMM FM14</OBJECT_NAME><OBJECT_ID>1998-046G</OBJECT_ID><CENTER_NAME>EARTH</CENTER_NAME><REF_FRAME>TEME</REF_FRAME><TIME_SYSTEM>UTC</TIME_SYSTEM><MEAN_ELEMENT_THEORY>SGP4</MEAN_ELEMENT_THEORY></metadata><data><meanElements><EPOCH>2024-11-25T14:31:20.889696</EPOCH><MEAN_MOTION>14.37667919</MEAN_MOTION><ECCENTRICITY>.0003039</ECCENTRICITY><INCLINATION>44.9960</INCLINATION><RA_OF_ASC_NODE>62.1418</RA_OF_ASC_NODE><ARG_OF_PERICENTER>295.0969</ARG_OF_PERICENTER><MEAN_ANOMALY>64.9564</MEAN_ANOMALY></meanElements><tleParameters><EPHEMERIS_TYPE>0</EPHEMERIS_TYPE><CLASSIFICATION_TYPE>U</CLASSIFICATION_TYPE><NORAD_CAT_ID>25419</NORAD_CAT_ID><ELEMENT_SET_NO>999</ELEMENT_SET_NO><REV_AT_EPOCH>37490</REV_AT_EPOCH><BSTAR>.13659E-2</BSTAR><MEAN_MOTION_DOT>.4002E-4</MEAN_MOTION_DOT><MEAN_MOTION_DDOT>0</MEAN_MOTION_DDOT></tleParameters></data></segment></body></omm>
<omm id="CCSDS_OMM_VERS" version="2.0">
<header><CREATION_DATE/><ORIGINATOR/></header><body><segment><metadata><OBJECT_NAME>ORBCOMM FM13</OBJECT_NAME><OBJECT_ID>1998-046H</OBJECT_ID><CENTER_NAME>EARTH</CENTER_NAME><REF_FRAME>TEME</REF_FRAME><TIME_SYSTEM>UTC</TIME_SYSTEM><MEAN_ELEMENT_THEORY>SGP4</MEAN_ELEMENT_THEORY></metadata><data><meanElements><EPOCH>2024-11-25T15:03:26.232480</EPOCH><MEAN_MOTION>14.36665204</MEAN_MOTION><ECCENTRICITY>.0004864</ECCENTRICITY><INCLINATION>44.9974</INCLINATION><RA_OF_ASC_NODE>68.2052</RA_OF_ASC_NODE><ARG_OF_PERICENTER>308.8895</ARG_OF_PERICENTER><MEAN_ANOMALY>51.1519</MEAN_ANOMALY></meanElements><tleParameters><EPHEMERIS_TYPE>0</EPHEMERIS_TYPE><CLASSIFICATION_TYPE>U</CLASSIFICATION_TYPE><NORAD_CAT_ID>25420</NORAD_CAT_ID><ELEMENT_SET_NO>999</ELEMENT_SET_NO><REV_AT_EPOCH>37395</REV_AT_EPOCH><BSTAR>.12518E-2</BSTAR><MEAN_MOTION_DOT>.358E-4</MEAN_MOTION_DOT><MEAN_MOTION_DDOT>0</MEAN_MOTION_DDOT></tleParameters></data></segment></body></omm>
<omm id="CCSDS_OMM_VERS" version="2.0">
<header><CREATION_DATE/><ORIGINATOR/></header><body><segment><metadata><OBJECT_NAME>ORBCOMM FM21</OBJECT_NAME><OBJECT_ID>1998-053A</OBJECT_ID><CENTER_NAME>EARTH</CENTER_NAME><REF_FRAME>TEME</REF_FRAME><TIME_SYSTEM>UTC</TIME_SYSTEM><MEAN_ELEMENT_THEORY>SGP4</MEAN_ELEMENT_THEORY></metadata><data><meanElements><EPOCH>2024-11-25T20:58:32.850048</EPOCH><MEAN_MOTION>14.36471767</MEAN_MOTION><ECCENTRICITY>.0000933</ECCENTRICITY><INCLINATION>45.0061</INCLINATION><RA_OF_ASC_NODE>151.7323</RA_OF_ASC_NODE><ARG_OF_PERICENTER>228.8064</ARG_OF_PERICENTER><MEAN_ANOMALY>131.2703</MEAN_ANOMALY></meanElements><tleParameters><EPHEMERIS_TYPE>0</EPHEMERIS_TYPE><CLASSIFICATION_TYPE>U</CLASSIFICATION_TYPE><NORAD_CAT_ID>25475</NORAD_CAT_ID><ELEMENT_SET_NO>999</ELEMENT_SET_NO><REV_AT_EPOCH>36800</REV_AT_EPOCH><BSTAR>.93744E-3</BSTAR><MEAN_MOTION_DOT>.2634E-4</MEAN_MOTION_DOT><MEAN_MOTION_DDOT>0</MEAN_MOTION_DDOT></tleParameters></data></segment></body></omm>
<omm id="CCSDS_OMM_VERS" version="2.0">
<header><CREATION_DATE/><ORIGINATOR/></header><body><segment><metadata><OBJECT_NAME>ORBCOMM FM22</OBJECT_NAME><OBJECT_ID>1998-053B</OBJECT_ID><CENTER_NAME>EARTH</CENTER_NAME><REF_FRAME>TEME</REF_FRAME><TIME_SYSTEM>UTC</TIME_SYSTEM><MEAN_ELEMENT_THEORY>SGP4</MEAN_ELEMENT_THEORY></metadata><data><meanElements><EPOCH>2024-11-25T03:19:19.096608</EPOCH><MEAN_MOTION>14.37247827</MEAN_MOTION><ECCENTRICITY>.0002568</ECCENTRICITY><INCLINATION>45.0054</INCLINATION><RA_OF_ASC_NODE>151.5264</RA_OF_ASC_NODE><ARG_OF_PERICENTER>252.5408</ARG_OF_PERICENTER><MEAN_ANOMALY>107.5159</MEAN_ANOMALY></meanElements><tleParameters><EPHEMERIS_TYPE>0</EPHEMERIS_TYPE><CLASSIFICATION_TYPE>U</CLASSIFICATION_TYPE><NORAD_CAT_ID>25476</NORAD_CAT_ID><ELEMENT_SET_NO>999</ELEMENT_SET_NO><REV_AT_EPOCH>36790</REV_AT_EPOCH><BSTAR>.10304E-2</BSTAR><MEAN_MOTION_DOT>.2957E-4</MEAN_MOTION_DOT><MEAN_MOTION_DDOT>0</MEAN_MOTION_DDOT></tleParameters></data></segment></body></omm>
<omm id="CCSDS_OMM_VERS" version="2.0">
<header><CREATION_DATE/><ORIGINATOR/></header><body><segment><metadata><OBJECT_NAME>ORBCOMM FM23</OBJECT_NAME><OBJECT_ID>1998-053C</OBJECT_ID><CENTER_NAME>EARTH</CENTER_NAME><REF_FRAME>TEME</REF_FRAME><TIME_SYSTEM>UTC</TIME_SYSTEM><MEAN_ELEMENT_THEORY>SGP4</MEAN_ELEMENT_THEORY></metadata><data><meanElements><EPOCH>2024-11-25T13:07:37.382880</EPOCH><MEAN_MOTION>14.36558800</MEAN_MOTION><ECCENTRICITY>.0001795</ECCENTRICITY><INCLINATION>45.0058</INCLINATION><RA_OF_ASC_NODE>155.6231</RA_OF_ASC_NODE><ARG_OF_PERICENTER>247.3510</ARG_OF_PERICENTER><MEAN_ANOMALY>112.7148</MEAN_ANOMALY></meanElements><tleParameters><EPHEMERIS_TYPE>0</EPHEMERIS_TYPE><CLASSIFICATION_TYPE>U</CLASSIFICATION_TYPE><NORAD_CAT_ID>25477</NORAD_CAT_ID><ELEMENT_SET_NO>999</ELEMENT_SET_NO><REV_AT_EPOCH>36841</REV_AT_EPOCH><BSTAR>.10278E-2</BSTAR><MEAN_MOTION_DOT>.2907E-4</MEAN_MOTION_DOT><MEAN_MOTION_DDOT>0</MEAN_MOTION_DDOT></tleParameters></data></segment></body></omm>

</ndm>
