ORBCOMM FM20            
1 25416U 98046D   24330.67446922  .00003212  00000+0  11357-2 0  9993
2 25416  44.9945  64.4734 0002018 247.8402 112.2232 14.36338389374994
ORBCOMM FM16            
1 25417U 98046E   24330.68212991  .00003732  00000+0  12759-2 0  9996
2 25417  44.9941  58.4450 0003907 318.5991  41.4561 14.37705212374954
ORBCOMM FM15            
1 25418U 98046F   24330.68032829  .00003854  00000+0  13246-2 0  9994
2 25418  44.9972  63.0226 0003423 317.3317  42.7265 14.37385215374956
ORBCOMM FM14            
1 25419U 98046G   24330.60510289  .00004002  00000+0  13659-2 0  9992
2 25419  44.9960  62.1418 0003039 295.0969  64.9564 14.37667919374902
ORBCOMM FM13            
1 25420U 98046H   24330.62738695  .00003580  00000+0  12518-2 0  9992
2 25420  44.9974  68.2052 0004864 308.8895  51.1519 14.36665204373954
ORBCOMM FM21            
1 25475U 98053A   24330.87399132  .00002634  00000+0  93744-3 0  9996
2 25475  45.0061 151.7323 0000933 228.8064 131.2703 14.36471767368008
ORBCOMM FM22            
1 25476U 98053B   24330.13841547  .00002957  00000+0  10304-2 0  9996
2 25476  45.0054 151.5264 0002568 252.5408 107.5159 14.37247827367903
ORBCOMM FM23            
1 25477U 98053C   24330.54696045  .00002907  00000+0  10278-2 0  9998
2 25477  45.0058 155.6231 0001795 247.3510 112.7148 14.36558800368412
